2026-052D               
1 68201U 26052D   26171.18319480  .00003922  00000+0  23563-3 0  9990
2 68201  97.5325 245.9805 0009897 303.0304  56.9975 15.11432806 14501
2026-052E               
1 68202U 26052E   26171.18372895  .00004064  00000+0  24411-3 0  9991
2 68202  97.5321 245.9861 0010031 306.9258  53.1052 15.11419361 14508
2026-052F               
1 68203U 26052F   26171.10076159  .00004788  00000+0  28479-3 0  9999
2 68203  97.5315 245.9350 0009035 298.7735  61.2587 15.11693694 14499
2026-052G               
1 68204U 26052G   26170.90082098  .00004219  00000+0  25187-3 0  9998
2 68204  97.5325 245.7453 0008865 303.2961  56.7420 15.11628336 14469
2026-052J               
1 68206U 26052J   26170.74871450  .00070686  23116-5  89748-3 0  9993
2 68206  97.3318 238.7382 0487398  60.0361 304.8317 14.82587259 14083
STARLINK-36986          
1 68207U 26053A   26171.19940450  .00018099  00000+0  56144-3 0  9997
2 68207  97.2860  46.2136 0001251  70.8679 289.2700 15.33454738 15923
STARLINK-37009          
1 68208U 26053B   26171.19668266  .00017872  00000+0  55441-3 0  9997
2 68208  97.2850  46.2172 0001026 105.3794 254.7562 15.33456331 15929
STARLINK-36948          
1 68209U 26053C   26171.19396333  .00012838  00000+0  39922-3 0  9994
2 68209  97.2843  46.2188 0001458 127.4948 232.6427 15.33452208 15906
STARLINK-37119          
1 68210U 26053D   26171.19124488  .00015607  00000+0  48466-3 0  9996
2 68210  97.2853  46.2213 0001617 136.1860 223.9512 15.33449854 15928
STARLINK-37120          
1 68211U 26053E   26171.18852704  .00010658  00000+0  33185-3 0  9998
2 68211  97.2892  46.2277 0001186  99.3818 260.7559 15.33458291 15909
STARLINK-37117          
1 68212U 26053F   26170.66376449  .00016839  00000+0  52251-3 0  9990
2 68212  97.2831  45.7163 0002870 114.2653 245.8889 15.33457031 15840
STARLINK-37116          
1 68213U 26053G   26171.18309228  .00015096  00000+0  46896-3 0  9992
2 68213  97.2870  46.2334 0001380 100.1658 259.9740 15.33446312 15925
STARLINK-35854          
1 68214U 26053H   26171.21845944  .00030140  00000+0  93204-3 0  9999
2 68214  97.2859  46.3318 0002078 104.9907 255.1566 15.33449584 15917
STARLINK-36272          
1 68215U 26053J   26171.17765009  .00016063  00000+0  49870-3 0  9996
2 68215  97.2891  46.2385 0000867 106.7257 253.4081 15.33452221 15903
STARLINK-37014          
1 68216U 26053K   26171.17493275  .00017358  00000+0  53869-3 0  9991
2 68216  97.2870  46.2448 0001245 103.4766 256.6616 15.33447818 15928
STARLINK-37011          
1 68217U 26053L   26171.17221184  .00020017  00000+0  62049-3 0  9996
2 68217  97.2881  46.2478 0000973 107.1718 252.9632 15.33456974 15929
STARLINK-37108          
1 68218U 26053M   26171.23474957  .00022889  00000+0  70901-3 0  9997
2 68218  97.2892  46.3157 0000799 109.0347 251.0983 15.33452423 15937
STARLINK-37106          
1 68219U 26053N   26171.23203029  .00020577  00000+0  63769-3 0  9994
2 68219  97.2879  46.3213 0001167 100.9716 259.1658 15.33459319 15935
STARLINK-37030          
1 68220U 26053P   26171.22659220  .00022072  00000+0  68373-3 0  9991
2 68220  97.2870  46.3266 0001258  97.1383 263.0003 15.33458456 15933
STARLINK-37012          
1 68221U 26053Q   26171.29456860  .00014075  00000+0  43743-3 0  9992
2 68221  97.2877  46.3886 0001339  92.5041 267.6356 15.33448351 15944
STARLINK-37110          
1 68222U 26053R   26171.22387514  .00025253  00000+0  78189-3 0  9997
2 68222  97.2862  46.3316 0001239 105.7426 254.3954 15.33446580 15938
STARLINK-37025          
1 68223U 26053S   26171.22115550  .00014101  00000+0  43827-3 0  9998
2 68223  97.2861  46.3358 0001404  97.3169 262.8234 15.33447208 15931
STARLINK-36960          
1 68225U 26053U   26171.21571802  .00011083  00000+0  34505-3 0  9994
2 68225  97.2857  46.3448 0001578  89.8943 270.2481 15.33451350 15914
STARLINK-37038          
1 68226U 26053V   26171.21028113  .00013590  00000+0  42240-3 0  9997
2 68226  97.2857  46.3521 0001482  93.3070 266.8343 15.33453144 15913
STARLINK-37083          
1 68227U 26053W   26171.21298961  .00009758  00000+0  30420-3 0  9996
2 68227  97.2865  46.3481 0000840  76.7448 283.3888 15.33443137 15907
STARLINK-37050          
1 68228U 26053X   26171.20757136  .00019205  00000+0  59505-3 0  9993
2 68228  97.2856  46.3560 0001864  98.0652 262.0802 15.33478907 15911
STARLINK-37081          
1 68229U 26053Y   26171.17722538  .00014448  00000+0  44888-3 0  9990
2 68229  97.2875  49.2925 0000900  78.8051 281.3293 15.33453656 16125
STARLINK-37100          
1 68230U 26053Z   26171.20484111  .00016459  00000+0  51096-3 0  9991
2 68230  97.2852  46.3606 0001191  71.2413 288.8959 15.33449887 15938
STARLINK-37104          
1 68231U 26053AA  26171.20212189  .00015497  00000+0  48119-3 0  9999
2 68231  97.2851  46.3631 0000883  59.3307 300.8022 15.33456208 15933
STARLINK-37027          
1 68232U 26054A   26171.27744427  .00015955  00000+0  48219-3 0  9993
2 68232  53.1589 172.8319 0001257  84.7538 275.3608 15.34409055 14805
