OBJECT_NAME,OBJECT_ID,EPOCH,MEAN_MOTION,ECCENTRICITY,INCLINATION,RA_OF_ASC_NODE,ARG_OF_PERICENTER,MEAN_ANOMALY,EPHEMERIS_TYPE,CLASSIFICATION_TYPE,NORAD_CAT_ID,ELEMENT_SET_NO,REV_AT_EPOCH,BSTAR,MEAN_MOTION_DOT,MEAN_MOTION_DDOT
2026-052D,2026-052D,2026-06-20T04:23:48.030720,15.11432806,.00098974,97.5325,245.9805,303.0304,56.9975,0,U,68201,999,1450,.23562638E-3,.3922E-4,0
2026-052E,2026-052E,2026-06-20T04:24:34.181280,15.11419361,.00100318,97.5321,245.9861,306.9258,53.1052,0,U,68202,999,1450,.24411455E-3,.4064E-4,0
2026-052F,2026-052F,2026-06-20T02:25:05.801376,15.11693694,.00090359,97.5315,245.9350,298.7735,61.2587,0,U,68203,999,1449,.2847904E-3,.4788E-4,0
2026-052G,2026-052G,2026-06-19T21:37:10.932672,15.11628336,.00088658,97.5325,245.7453,303.2961,56.7420,0,U,68204,999,1446,.25186549E-3,.4219E-4,0
2026-052J,2026-052J,2026-06-19T17:58:08.932800,14.82587259,.04873985,97.3318,238.7382,60.0361,304.8317,0,U,68206,999,1408,.8974792E-3,.70686E-3,.231163E-5
STARLINK-36986,2026-053A,2026-06-20T04:47:08.548800,15.33454738,.00012518,97.2860,46.2136,70.8679,289.2700,0,U,68207,999,1592,.56143632E-3,.18099E-3,0
STARLINK-37009,2026-053B,2026-06-20T04:43:13.381824,15.33456331,.00010266,97.2850,46.2172,105.3794,254.7562,0,U,68208,999,1592,.55440928E-3,.17872E-3,0
STARLINK-36948,2026-053C,2026-06-20T04:39:18.431712,15.33452208,.00014586,97.2843,46.2188,127.4948,232.6427,0,U,68209,999,1590,.3992163E-3,.12838E-3,0
STARLINK-37119,2026-053D,2026-06-20T04:35:23.557632,15.33449854,.00016172,97.2853,46.2213,136.1860,223.9512,0,U,68210,999,1592,.48466053E-3,.15607E-3,0
STARLINK-37120,2026-053E,2026-06-20T04:31:28.736256,15.33458291,.00011867,97.2892,46.2277,99.3818,260.7559,0,U,68211,999,1590,.33185035E-3,.10658E-3,0
STARLINK-37117,2026-053F,2026-06-19T15:55:49.251936,15.33457031,.00028701,97.2831,45.7163,114.2653,245.8889,0,U,68212,999,1584,.52250652E-3,.16839E-3,0
STARLINK-37116,2026-053G,2026-06-20T04:23:39.172992,15.33446312,.00013801,97.2870,46.2334,100.1658,259.9740,0,U,68213,999,1592,.46895573E-3,.15096E-3,0
STARLINK-35854,2026-053H,2026-06-20T05:14:34.895616,15.33449584,.00020788,97.2859,46.3318,104.9907,255.1566,0,U,68214,999,1591,.93204015E-3,.3014E-3,0
STARLINK-36272,2026-053J,2026-06-20T04:15:48.967776,15.33452221,.00008674,97.2891,46.2385,106.7257,253.4081,0,U,68215,999,1590,.49870133E-3,.16063E-3,0
STARLINK-37014,2026-053K,2026-06-20T04:11:54.189600,15.33447818,.00012456,97.2870,46.2448,103.4766,256.6616,0,U,68216,999,1592,.53869438E-3,.17358E-3,0
STARLINK-37011,2026-053L,2026-06-20T04:07:59.102976,15.33456974,.00009739,97.2881,46.2478,107.1718,252.9632,0,U,68217,999,1592,.62049335E-3,.20017E-3,0
STARLINK-37108,2026-053M,2026-06-20T05:38:02.362848,15.33452423,.00007994,97.2892,46.3157,109.0347,251.0983,0,U,68218,999,1593,.70901317E-3,.22889E-3,0
STARLINK-37106,2026-053N,2026-06-20T05:34:07.417056,15.33459319,.00011673,97.2879,46.3213,100.9716,259.1658,0,U,68219,999,1593,.63768902E-3,.20577E-3,0
STARLINK-37030,2026-053P,2026-06-20T05:26:17.566080,15.33458456,.00012585,97.2870,46.3266,97.1383,263.0003,0,U,68220,999,1593,.68373087E-3,.22072E-3,0
STARLINK-37012,2026-053Q,2026-06-20T07:04:10.727040,15.33448351,.00013396,97.2877,46.3886,92.5041,267.6356,0,U,68221,999,1594,.43742541E-3,.14075E-3,0
STARLINK-37110,2026-053R,2026-06-20T05:22:22.812096,15.33446580,.00012399,97.2862,46.3316,105.7426,254.3954,0,U,68222,999,1593,.78188708E-3,.25253E-3,0
STARLINK-37025,2026-053S,2026-06-20T05:18:27.835200,15.33447208,.00014045,97.2861,46.3358,97.3169,262.8234,0,U,68223,999,1593,.43826584E-3,.14101E-3,0
STARLINK-36960,2026-053U,2026-06-20T05:10:38.036928,15.33451350,.00015787,97.2857,46.3448,89.8943,270.2481,0,U,68225,999,1591,.34504699E-3,.11083E-3,0
STARLINK-37038,2026-053V,2026-06-20T05:02:48.289632,15.33453144,.00014826,97.2857,46.3521,93.3070,266.8343,0,U,68226,999,1591,.42239801E-3,.1359E-3,0
STARLINK-37083,2026-053W,2026-06-20T05:06:42.302304,15.33443137,.00008409,97.2865,46.3481,76.7448,283.3888,0,U,68227,999,1590,.30419985E-3,.9758E-4,0
STARLINK-37050,2026-053X,2026-06-20T04:58:54.165504,15.33478907,.00018641,97.2856,46.3560,98.0652,262.0802,0,U,68228,999,1591,.59504792E-3,.19205E-3,0
STARLINK-37081,2026-053Y,2026-06-20T04:15:12.272832,15.33453656,.00009009,97.2875,49.2925,78.8051,281.3293,0,U,68229,999,1612,.44887661E-3,.14448E-3,0
STARLINK-37100,2026-053Z,2026-06-20T04:54:58.271904,15.33449887,.00011915,97.2852,46.3606,71.2413,288.8959,0,U,68230,999,1593,.51095741E-3,.16459E-3,0
STARLINK-37104,2026-053AA,2026-06-20T04:51:03.331296,15.33456208,.00008837,97.2851,46.3631,59.3307,300.8022,0,U,68231,999,1593,.48118591E-3,.15497E-3,0
STARLINK-37027,2026-054A,2026-06-20T06:39:31.184928,15.34409055,.00012576,53.1589,172.8319,84.7538,275.3608,0,U,68232,999,1480,.48219403E-3,.15955E-3,0
